STARLINK-3281           
1 50183U 21125AD  25202.42183295  .00000127  00000+0  26052-4 0  9991
2 50183  53.2161 207.3211 0001161  80.4577 279.6547 15.08843041198601
STARLINK-3279           
1 50185U 21125AF  25202.23416086 -.00001040  00000+0 -47268-4 0  9998
2 50185  53.2166 208.2030 0001185  82.3300 277.7827 15.08837136201184
STARLINK-3274           
1 50186U 21125AG  25202.31051571  .00000293  00000+0  36508-4 0  9994
2 50186  53.2156 217.8206 0000996  72.3650 287.7451 15.08840642201057
STARLINK-3272           
1 50187U 21125AH  25202.27189222 -.00000755  00000+0 -29370-4 0  9999
2 50187  53.2170 197.9965 0001215  79.6891 280.4238 15.08830117198713
STARLINK-3275           
1 50188U 21125AJ  25202.58334491  .00359569  00000+0  15320-2 0  9990
2 50188  53.1957  91.1293 0002937 183.7243 283.3831 15.83734255200247
STARLINK-3276           
1 50189U 21125AK  25201.41815745  .00000408  00000+0  43733-4 0  9994
2 50189  53.2161 211.8391 0000923  78.6139 281.4957 15.08848456201576
STARLINK-3268           
1 50190U 21125AL  25201.73090660  .00001551  00000+0  11547-3 0  9999
2 50190  53.2163 200.4247 0001116  76.1608 283.9508 15.08850263201717
STARLINK-3273           
1 50191U 21125AM  25202.20379632 -.00000112  00000+0  11039-4 0  9992
2 50191  53.2168 218.3018 0001125  95.3013 264.8107 15.08835670198421
STARLINK-3259           
1 50192U 21125AN  25202.19091458  .00000551  00000+0  52701-4 0  9995
2 50192  53.2165 198.3605 0001043  71.4646 288.6459 15.08839790198694
STARLINK-3261           
1 50193U 21125AP  25202.20195598 -.00001112  00000+0 -51797-4 0  9998
2 50193  53.2160 198.3081 0000974  71.9046 288.2052 15.08831948201304
STARLINK-3269           
1 50194U 21125AQ  25202.20265357  .00024848  00000+0  62068-3 0  9991
2 50194  53.2218 171.9630 0002610  56.2210 303.9044 15.40033644201684
STARLINK-3266           
1 50195U 21125AR  25202.39701199  .00000922  00000+0  76003-4 0  9993
2 50195  53.2161 197.4345 0001394  70.1599 289.9544 15.08836579201333
STARLINK-3267           
1 50197U 21125AT  25201.71987984 -.00000608  00000+0 -20138-4 0  9999
2 50197  53.2164 200.4758 0001233  72.3222 287.7905 15.08835211201766
STARLINK-3264           
1 50198U 21125AU  25201.70515845  .00000117  00000+0  25452-4 0  9999
2 50198  53.2163 200.5410 0001215  77.6578 282.4550 15.08835113201718
STARLINK-3270           
1 50199U 21125AV  25202.21667545 -.00000663  00000+0 -23580-4 0  9990
2 50199  53.2155 198.2423 0001205  74.6667 285.4458 15.08838388201304
STARLINK-3235           
1 50200U 21125AW  25201.37763615 -.00000388  00000+0 -63055-5 0  9990
2 50200  53.2170 201.9740 0001042  72.7154 287.3952 15.08838576201676
STARLINK-3255           
1 50201U 21125AX  25202.21217082  .00028074  00000+0  61068-3 0  9997
2 50201  53.2108 183.2717 0004126  46.1019 314.0328 15.44119648201526
STARLINK-3256           
1 50202U 21125AY  25202.21299374 -.00000327  00000+0 -24612-5 0  9991
2 50202  53.2154 198.2577 0001298  46.9200 313.1901 15.08835788201308
STARLINK-3257           
1 50203U 21125AZ  25201.71716740  .00000492  00000+0  49021-4 0  9998
2 50203  53.2157 200.5752 0001213  82.6878 277.4252 15.08835218201779
STARLINK-3254           
1 50204U 21125BA  25201.69139514 -.00000059  00000+0  14374-4 0  9997
2 50204  53.2158 200.6107 0001152  77.0138 283.0983 15.08835723201769
STARLINK-3260           
1 50205U 21125BB  25202.29399013  .00000802  00000+0  68496-4 0  9996
2 50205  53.2167 167.8964 0001272  79.3942 280.7193 15.08841506201758
STARLINK-3258           
1 50206U 21125BC  25202.21393748 -.00000054  00000+0  14716-4 0  9994
2 50206  53.2155 198.1484 0001104  76.9740 283.1375 15.08839612199719
STARLINK-3262           
1 50207U 21125BD  25202.36019495  .00000692  00000+0  61565-4 0  9996
2 50207  53.2163 197.5989 0001169  73.9719 286.1402 15.08838458199807
STARLINK-3323           
1 50804U 22001B   25202.17987892 -.00000531  00000+0 -15293-4 0  9998
2 50804  53.2180 118.4085 0001505  95.3089 264.8075 15.08835454196843
STARLINK-3333           
1 50805U 22001C   25201.91123481  .00002015  00000+0  14470-3 0  9998
2 50805  53.2174 119.6137 0001300  83.1578 276.9562 15.08829123195557
STARLINK-3335           
1 50806U 22001D   25202.50371584  .00000295  00000+0  36649-4 0  9995
2 50806  53.2165 116.9541 0001354  90.7441 269.3706 15.08839018196910
STARLINK-3355           
1 50808U 22001F   25201.76771619 -.00000985  00000+0 -43815-4 0  9998
2 50808  53.2170 120.2618 0001415  86.1667 273.9487 15.08840346195538
STARLINK-3232           
1 50809U 22001G   25201.77139582 -.00000818  00000+0 -33313-4 0  9994
2 50809  53.2173 120.2430 0001423  82.4765 277.6389 15.08844388195533
STARLINK-3338           
1 50812U 22001K   25202.06213429 -.00000233  00000+0  34299-5 0  9999
2 50812  53.2175 119.0425 0001642  83.0548 277.0631 15.08831207196821
STARLINK-3349           
1 50813U 22001L   25201.90368699  .00013108  00000+0  63108-3 0  9995
2 50813  53.2167 112.1700 0004167 348.8224  11.2680 15.19085336195660
