OBJECT_NAME,OBJECT_ID,EPOCH,MEAN_MOTION,ECCENTRICITY,INCLINATION,RA_OF_ASC_NODE,ARG_OF_PERICENTER,MEAN_ANOMALY,EPHEMERIS_TYPE,CLASSIFICATION_TYPE,NORAD_CAT_ID,ELEMENT_SET_NO,REV_AT_EPOCH,BSTAR,MEAN_MOTION_DOT,MEAN_MOTION_DDOT
STARLINK-3281,2021-125AD,2025-07-21T10:07:26.366880,15.08843041,.0001161,53.2161,207.3211,80.4577,279.6547,0,U,50183,999,19860,.26052E-4,.127E-5,0
STARLINK-3279,2021-125AF,2025-07-21T05:37:11.498304,15.08837136,.0001185,53.2166,208.2030,82.3300,277.7827,0,U,50185,999,20118,-.47268E-4,-.104E-4,0
STARLINK-3274,2021-125AG,2025-07-21T07:27:08.557344,15.08840642,.0000996,53.2156,217.8206,72.3650,287.7451,0,U,50186,999,20105,.36508E-4,.293E-5,0
STARLINK-3272,2021-125AH,2025-07-21T06:31:31.487808,15.08830117,.0001215,53.2170,197.9965,79.6891,280.4238,0,U,50187,999,19871,-.2937E-4,-.755E-5,0
STARLINK-3275,2021-125AJ,2025-07-21T14:00:01.000224,15.83734255,.0002937,53.1957,91.1293,183.7243,283.3831,0,U,50188,999,20024,.1532E-2,.359569E-2,0
STARLINK-3276,2021-125AK,2025-07-20T10:02:08.803680,15.08848456,.0000923,53.2161,211.8391,78.6139,281.4957,0,U,50189,999,20157,.43733E-4,.408E-5,0
STARLINK-3268,2021-125AL,2025-07-20T17:32:30.330240,15.08850263,.0001116,53.2163,200.4247,76.1608,283.9508,0,U,50190,999,20171,.11547E-3,.1551E-4,0
STARLINK-3273,2021-125AM,2025-07-21T04:53:28.002048,15.08835670,.0001125,53.2168,218.3018,95.3013,264.8107,0,U,50191,999,19842,.11039E-4,-.112E-5,0
STARLINK-3259,2021-125AN,2025-07-21T04:34:55.019712,15.08839790,.0001043,53.2165,198.3605,71.4646,288.6459,0,U,50192,999,19869,.52701E-4,.551E-5,0
STARLINK-3261,2021-125AP,2025-07-21T04:50:48.996672,15.08831948,.0000974,53.2160,198.3081,71.9046,288.2052,0,U,50193,999,20130,-.51797E-4,-.1112E-4,0
STARLINK-3269,2021-125AQ,2025-07-21T04:51:49.268448,15.40033644,.000261,53.2218,171.9630,56.2210,303.9044,0,U,50194,999,20168,.62068E-3,.24848E-3,0
STARLINK-3266,2021-125AR,2025-07-21T09:31:41.835936,15.08836579,.0001394,53.2161,197.4345,70.1599,289.9544,0,U,50195,999,20133,.76003E-4,.922E-5,0
STARLINK-3267,2021-125AT,2025-07-20T17:16:37.618176,15.08835211,.0001233,53.2164,200.4758,72.3222,287.7905,0,U,50197,999,20176,-.20138E-4,-.608E-5,0
STARLINK-3264,2021-125AU,2025-07-20T16:55:25.690080,15.08835113,.0001215,53.2163,200.5410,77.6578,282.4550,0,U,50198,999,20171,.25452E-4,.117E-5,0
STARLINK-3270,2021-125AV,2025-07-21T05:12:00.758880,15.08838388,.0001205,53.2155,198.2423,74.6667,285.4458,0,U,50199,999,20130,-.2358E-4,-.663E-5,0
STARLINK-3235,2021-125AW,2025-07-20T09:03:47.763360,15.08838576,.0001042,53.2170,201.9740,72.7154,287.3952,0,U,50200,999,20167,-.63055E-5,-.388E-5,0
STARLINK-3255,2021-125AX,2025-07-21T05:05:31.558848,15.44119648,.0004126,53.2108,183.2717,46.1019,314.0328,0,U,50201,999,20152,.61068E-3,.28074E-3,0
STARLINK-3256,2021-125AY,2025-07-21T05:06:42.659136,15.08835788,.0001298,53.2154,198.2577,46.9200,313.1901,0,U,50202,999,20130,-.24612E-5,-.327E-5,0
STARLINK-3257,2021-125AZ,2025-07-20T17:12:43.263360,15.08835218,.0001213,53.2157,200.5752,82.6878,277.4252,0,U,50203,999,20177,.49021E-4,.492E-5,0
STARLINK-3254,2021-125BA,2025-07-20T16:35:36.540096,15.08835723,.0001152,53.2158,200.6107,77.0138,283.0983,0,U,50204,999,20176,.14374E-4,-.59E-6,0
STARLINK-3260,2021-125BB,2025-07-21T07:03:20.747232,15.08841506,.0001272,53.2167,167.8964,79.3942,280.7193,0,U,50205,999,20175,.68496E-4,.802E-5,0
STARLINK-3258,2021-125BC,2025-07-21T05:08:04.198272,15.08839612,.0001104,53.2155,198.1484,76.9740,283.1375,0,U,50206,999,19971,.14716E-4,-.54E-6,0
STARLINK-3262,2021-125BD,2025-07-21T08:38:40.843680,15.08838458,.0001169,53.2163,197.5989,73.9719,286.1402,0,U,50207,999,19980,.61565E-4,.692E-5,0
STARLINK-3323,2022-001B,2025-07-21T04:19:01.538688,15.08835454,.0001505,53.2180,118.4085,95.3089,264.8075,0,U,50804,999,19684,-.15293E-4,-.531E-5,0
STARLINK-3333,2022-001C,2025-07-20T21:52:10.687584,15.08829123,.00013,53.2174,119.6137,83.1578,276.9562,0,U,50805,999,19555,.1447E-3,.2015E-4,0
STARLINK-3335,2022-001D,2025-07-21T12:05:21.048576,15.08839018,.0001354,53.2165,116.9541,90.7441,269.3706,0,U,50806,999,19691,.36649E-4,.295E-5,0
STARLINK-3355,2022-001F,2025-07-20T18:25:30.678816,15.08840346,.0001415,53.2170,120.2618,86.1667,273.9487,0,U,50808,999,19553,-.43815E-4,-.985E-5,0
STARLINK-3232,2022-001G,2025-07-20T18:30:48.598848,15.08844388,.0001423,53.2173,120.2430,82.4765,277.6389,0,U,50809,999,19553,-.33313E-4,-.818E-5,0
STARLINK-3338,2022-001K,2025-07-21T01:29:28.402656,15.08831207,.0001642,53.2175,119.0425,83.0548,277.0631,0,U,50812,999,19682,.34299E-5,-.233E-5,0
STARLINK-3349,2022-001L,2025-07-20T21:41:18.555936,15.19085336,.0004167,53.2167,112.1700,348.8224,11.2680,0,U,50813,999,19566,.63108E-3,.13108E-3,0
